[{"OBJECT_NAME":"STARLINK-32140","OBJECT_ID":"2024-183C","EPOCH":"2026-03-09T11:45:13.262976","MEAN_MOTION":15.30205626,"ECCENTRICITY":0.00010196,"INCLINATION":53.1603,"RA_OF_ASC_NODE":143.2518,"ARG_OF_PERICENTER":74.1089,"MEAN_ANOMALY":286.0024,"EPHEMERIS_TYPE":0,"CLASSIFICATION_TYPE":"U","NORAD_CAT_ID":61511,"ELEMENT_SET_NO":999,"REV_AT_EPOCH":7962,"BSTAR":-6.0845062e-5,"MEAN_MOTION_DOT":-2.161e-5,"MEAN_MOTION_DDOT":0},{"OBJECT_NAME":"JINJUSAT-1B","OBJECT_ID":"2025-052A","EPOCH":"2026-03-09T15:55:38.242848","MEAN_MOTION":15.30194857,"ECCENTRICITY":0.00055504,"INCLINATION":97.4113,"RA_OF_ASC_NODE":325.4613,"ARG_OF_PERICENTER":82.193,"MEAN_ANOMALY":277.9941,"EPHEMERIS_TYPE":0,"CLASSIFICATION_TYPE":"U","NORAD_CAT_ID":63210,"ELEMENT_SET_NO":999,"REV_AT_EPOCH":5486,"BSTAR":0.00068430401,"MEAN_MOTION_DOT":0.00019955,"MEAN_MOTION_DDOT":0}]
